{
  "type": "FeatureCollection",
  "features": [
    {
      "type": "Feature",
      "properties": {
        "norad_id": 39111,
        "name": "COSMOS 2251 DEB",
        "group": "cosmos-2251-debris",
        "lat": 59.74259304302906,
        "lon": 66.18287637896235,
        "alt_km": 512.1920688783375,
        "timestamp": "2025-12-14T20:40:32.171215+00:00",
        "meta_object_name": "COSMOS 2251 DEB",
        "meta_object_id": "1993-036BUA",
        "meta_epoch": "2025-12-01T22:58:55.551360",
        "meta_mean_motion": 15.11912111,
        "meta_eccentricity": 0.00109111,
        "meta_inclination": 74.0059,
        "meta_ra_of_asc_node": 63.5328,
        "meta_arg_of_pericenter": 39.1207,
        "meta_mean_anomaly": 321.0773,
        "meta_ephemeris_type": 0,
        "meta_classification_type": "U",
        "meta_norad_cat_id": 39111,
        "meta_element_set_no": 999,
        "meta_rev_at_epoch": 8982,
        "meta_bstar": 0.0056424119,
        "meta_mean_motion_dot": 0.00098096,
        "meta_mean_motion_ddot": 0,
        "tle_line1": "1 39111U 93036BUA 25335.95758740  .00098096  00000+0  56424-2 0  9993",
        "tle_line2": "2 39111  74.0059  63.5328 0010911  39.1207 321.0773 15.11912111 89826"
      },
      "geometry": {
        "type": "Point",
        "coordinates": [
          66.18287637896235,
          59.74259304302906
        ]
      }
    },
    {
      "type": "Feature",
      "properties": {
        "norad_id": 39546,
        "name": "COSMOS 2251 DEB",
        "group": "cosmos-2251-debris",
        "lat": 8.868624287464515,
        "lon": 135.0900720104222,
        "alt_km": 585.786152749667,
        "timestamp": "2025-12-14T20:40:32.171225+00:00",
        "meta_object_name": "COSMOS 2251 DEB",
        "meta_object_id": "1993-036BUC",
        "meta_epoch": "2025-12-14T02:56:02.642784",
        "meta_mean_motion": 14.92108062,
        "meta_eccentricity": 0.00440773,
        "meta_inclination": 73.9975,
        "meta_ra_of_asc_node": 134.0104,
        "meta_arg_of_pericenter": 293.868,
        "meta_mean_anomaly": 65.7886,
        "meta_ephemeris_type": 0,
        "meta_classification_type": "U",
        "meta_norad_cat_id": 39546,
        "meta_element_set_no": 999,
        "meta_rev_at_epoch": 64457,
        "meta_bstar": 0.0014045613,
        "meta_mean_motion_dot": 0.0001454,
        "meta_mean_motion_ddot": 0,
        "tle_line1": "1 39546U 93036BUC 25348.12225281  .00014540  00000+0  14046-2 0  9993",
        "tle_line2": "2 39546  73.9975 134.0104 0044077 293.8680  65.7886 14.92108062644579"
      },
      "geometry": {
        "type": "Point",
        "coordinates": [
          135.0900720104222,
          8.868624287464515
        ]
      }
    },
    {
      "type": "Feature",
      "properties": {
        "norad_id": 39547,
        "name": "COSMOS 2251 DEB",
        "group": "cosmos-2251-debris",
        "lat": 73.44432250169639,
        "lon": 88.86662848271266,
        "alt_km": 547.5618647779247,
        "timestamp": "2025-12-14T20:40:32.171235+00:00",
        "meta_object_name": "COSMOS 2251 DEB",
        "meta_object_id": "1993-036BUD",
        "meta_epoch": "2025-12-11T09:19:23.142720",
        "meta_mean_motion": 15.03149488,
        "meta_eccentricity": 0.00052092,
        "meta_inclination": 74.0018,
        "meta_ra_of_asc_node": 21.1464,
        "meta_arg_of_pericenter": 16.2917,
        "meta_mean_anomaly": 0.6798,
        "meta_ephemeris_type": 0,
        "meta_classification_type": "U",
        "meta_norad_cat_id": 39547,
        "meta_element_set_no": 999,
        "meta_rev_at_epoch": 64005,
        "meta_bstar": 0.0051209995,
        "meta_mean_motion_dot": 0.00069871,
        "meta_mean_motion_ddot": 0,
        "tle_line1": "1 39547U 93036BUD 25345.38846230  .00069871  00000+0  51210-2 0  9993",
        "tle_line2": "2 39547  74.0018  21.1464 0005209  16.2917   0.6798 15.03149488640058"
      },
      "geometry": {
        "type": "Point",
        "coordinates": [
          88.86662848271266,
          73.44432250169639
        ]
      }
    },
    {
      "type": "Feature",
      "properties": {
        "norad_id": 39553,
        "name": "COSMOS 2251 DEB",
        "group": "cosmos-2251-debris",
        "lat": -5.338063592467184,
        "lon": 147.88014129264346,
        "alt_km": 877.9929631107789,
        "timestamp": "2025-12-14T20:40:32.171245+00:00",
        "meta_object_name": "COSMOS 2251 DEB",
        "meta_object_id": "1993-036BUK",
        "meta_epoch": "2025-12-07T06:00:50.455872",
        "meta_mean_motion": 13.99876591,
        "meta_eccentricity": 0.02014092,
        "meta_inclination": 74.0304,
        "meta_ra_of_asc_node": 339.5232,
        "meta_arg_of_pericenter": 116.8065,
        "meta_mean_anomaly": 245.3825,
        "meta_ephemeris_type": 0,
        "meta_classification_type": "U",
        "meta_norad_cat_id": 39553,
        "meta_element_set_no": 999,
        "meta_rev_at_epoch": 75540,
        "meta_bstar": 0.00088887208,
        "meta_mean_motion_dot": 1.532e-05,
        "meta_mean_motion_ddot": 0,
        "tle_line1": "1 39553U 93036BUK 25341.25058398  .00001532  00000+0  88887-3 0  9993",
        "tle_line2": "2 39553  74.0304 339.5232 0201409 116.8065 245.3825 13.99876591755403"
      },
      "geometry": {
        "type": "Point",
        "coordinates": [
          147.88014129264346,
          -5.338063592467184
        ]
      }
    },
    {
      "type": "Feature",
      "properties": {
        "norad_id": 39554,
        "name": "COSMOS 2251 DEB",
        "group": "cosmos-2251-debris",
        "lat": -23.039621535439018,
        "lon": -106.77650951319414,
        "alt_km": 538.6752308447385,
        "timestamp": "2025-12-14T20:40:32.171255+00:00",
        "meta_object_name": "COSMOS 2251 DEB",
        "meta_object_id": "1993-036BUL",
        "meta_epoch": "2025-12-10T06:12:03.924864",
        "meta_mean_motion": 15.10130993,
        "meta_eccentricity": 0.0002993,
        "meta_inclination": 74.0187,
        "meta_ra_of_asc_node": 269.7383,
        "meta_arg_of_pericenter": 74.7531,
        "meta_mean_anomaly": 81.5927,
        "meta_ephemeris_type": 0,
        "meta_classification_type": "U",
        "meta_norad_cat_id": 39554,
        "meta_element_set_no": 999,
        "meta_rev_at_epoch": 64347,
        "meta_bstar": 0.0046896,
        "meta_mean_motion_dot": 0.000773,
        "meta_mean_motion_ddot": 0,
        "tle_line1": "1 39554U 93036BUL 25344.25837876  .00077300  00000+0  46896-2 0  9992",
        "tle_line2": "2 39554  74.0187 269.7383 0002993  74.7531  81.5927 15.10130993643471"
      },
      "geometry": {
        "type": "Point",
        "coordinates": [
          -106.77650951319414,
          -23.039621535439018
        ]
      }
    },
    {
      "type": "Feature",
      "properties": {
        "norad_id": 39583,
        "name": "COSMOS 2251 DEB",
        "group": "cosmos-2251-debris",
        "lat": -6.118982030001594,
        "lon": -118.62152808929449,
        "alt_km": 598.3069785259295,
        "timestamp": "2025-12-14T20:40:32.171265+00:00",
        "meta_object_name": "COSMOS 2251 DEB",
        "meta_object_id": "1993-036BUN",
        "meta_epoch": "2025-12-13T00:19:01.768224",
        "meta_mean_motion": 14.60448546,
        "meta_eccentricity": 0.01368586,
        "meta_inclination": 73.9329,
        "meta_ra_of_asc_node": 246.7005,
        "meta_arg_of_pericenter": 0.0427,
        "meta_mean_anomaly": 0.0725,
        "meta_ephemeris_type": 0,
        "meta_classification_type": "U",
        "meta_norad_cat_id": 39583,
        "meta_element_set_no": 999,
        "meta_rev_at_epoch": 61783,
        "meta_bstar": 0.0026464366,
        "meta_mean_motion_dot": 0.00014636,
        "meta_mean_motion_ddot": 0,
        "tle_line1": "1 39583U 93036BUN 25347.01321491  .00014636  00000+0  26464-2 0  9994",
        "tle_line2": "2 39583  73.9329 246.7005 0136858   0.0427   0.0725 14.60448546617832"
      },
      "geometry": {
        "type": "Point",
        "coordinates": [
          -118.62152808929449,
          -6.118982030001594
        ]
      }
    },
    {
      "type": "Feature",
      "properties": {
        "norad_id": 39585,
        "name": "COSMOS 2251 DEB",
        "group": "cosmos-2251-debris",
        "lat": 13.362125744249138,
        "lon": 113.38159535292618,
        "alt_km": 712.5216509650427,
        "timestamp": "2025-12-14T20:40:32.171275+00:00",
        "meta_object_name": "COSMOS 2251 DEB",
        "meta_object_id": "1993-036BUQ",
        "meta_epoch": "2025-12-14T03:27:48.164544",
        "meta_mean_motion": 14.5867271,
        "meta_eccentricity": 0.00655931,
        "meta_inclination": 74.0424,
        "meta_ra_of_asc_node": 298.6434,
        "meta_arg_of_pericenter": 59.1971,
        "meta_mean_anomaly": 301.5627,
        "meta_ephemeris_type": 0,
        "meta_classification_type": "U",
        "meta_norad_cat_id": 39585,
        "meta_element_set_no": 999,
        "meta_rev_at_epoch": 62541,
        "meta_bstar": 0.00040250434,
        "meta_mean_motion_dot": 1.903e-05,
        "meta_mean_motion_ddot": 0,
        "tle_line1": "1 39585U 93036BUQ 25348.14430746  .00001903  00000+0  40250-3 0  9998",
        "tle_line2": "2 39585  74.0424 298.6434 0065593  59.1971 301.5627 14.58672710625412"
      },
      "geometry": {
        "type": "Point",
        "coordinates": [
          113.38159535292618,
          13.362125744249138
        ]
      }
    }
  ]
}